[{"OBJECT_NAME":"FLOCK 4H-1","OBJECT_ID":"2025-276AQ","EPOCH":"2026-03-09T15:24:19.827360","MEAN_MOTION":15.19357425,"ECCENTRICITY":0.0001009,"INCLINATION":97.4247,"RA_OF_ASC_NODE":143.9566,"ARG_OF_PERICENTER":342.9281,"MEAN_ANOMALY":17.1919,"EPHEMERIS_TYPE":0,"CLASSIFICATION_TYPE":"U","NORAD_CAT_ID":66704,"ELEMENT_SET_NO":999,"REV_AT_EPOCH":1531,"BSTAR":0.00035145,"MEAN_MOTION_DOT":7.365e-5,"MEAN_MOTION_DDOT":0},{"OBJECT_NAME":"DEAR-5","OBJECT_ID":"2025-296B","EPOCH":"2026-03-09T23:49:47.465472","MEAN_MOTION":15.17623217,"ECCENTRICITY":0.00202983,"INCLINATION":41.3572,"RA_OF_ASC_NODE":323.7156,"ARG_OF_PERICENTER":262.6695,"MEAN_ANOMALY":97.1819,"EPHEMERIS_TYPE":0,"CLASSIFICATION_TYPE":"U","NORAD_CAT_ID":67070,"ELEMENT_SET_NO":999,"REV_AT_EPOCH":1320,"BSTAR":0.00032921308,"MEAN_MOTION_DOT":6.585e-5,"MEAN_MOTION_DDOT":0}]
